STARLINK-4469           
1 53657U 22105K   25359.79391272  .00001082  00000+0  69644-5 0  9994
2 53657  97.6430 252.5900 0001554 110.0942 250.0491 15.79058741183035
STARLINK-4452           
1 53658U 22105L   25359.59609256 -.00000016  00000+0  30881-5 0  9995
2 53658  97.6023 238.2381 0002416  88.2976 271.8528 15.05644507182153
STARLINK-4463           
1 53659U 22105M   25359.83335647  .01108548  00000+0  28598-1 0  9990
2 53659  97.6039 239.1151 0001572  79.9121 169.4488 15.36359078  5798
STARLINK-4473           
1 53660U 22105N   25359.63862145 -.00000004  00000+0  42044-5 0  9992
2 53660  97.6028 237.7081 0000312  91.0379 269.0881 15.01262246182124
STARLINK-4472           
1 53661U 22105P   25359.64072738  .00000471  00000+0  41189-4 0  9990
2 53661  97.6030 237.7137 0001392  70.7301 289.4073 15.01252045182123
STARLINK-4357           
1 53662U 22105Q   25359.56838817  .00000381  00000+0  30618-4 0  9995
2 53662  97.6023 238.0938 0002132  78.7872 281.3594 15.05651028182142
STARLINK-4457           
1 53663U 22105R   25359.65977787  .00000479  00000+0  37408-4 0  9998
2 53663  97.6015 238.2996 0002410  83.5009 276.6492 15.05647743182160
STARLINK-4471           
1 53664U 22105S   25359.62377433  .00000448  00000+0  35235-4 0  9990
2 53664  97.6029 238.1765 0002361  74.7611 285.3877 15.05648911182156
STARLINK-4334           
1 53665U 22105T   25359.65701025 -.00000136  00000+0 -52008-5 0  9996
2 53665  97.6029 238.2951 0002584  88.2466 271.9057 15.05646622182169
STARLINK-4406           
1 53667U 22105V   25359.64039501 -.00001520  00000+0 -10114-3 0  9998
2 53667  97.6020 238.3153 0002016  83.3529 276.7927 15.05646250182169
STARLINK-4458           
1 53668U 22105W   25359.67915808 -.00000037  00000+0  16493-5 0  9994
2 53668  97.6026 238.2210 0002037  90.5375 269.6086 15.05644888182163
STARLINK-4464           
1 53669U 22105X   25359.56826940  .00000524  00000+0  45320-4 0  9991
2 53669  97.6030 237.6308 0000570 134.9431 225.1840 15.01256219182119
STARLINK-4459           
1 53670U 22105Y   25359.64870543 -.00000021  00000+0  27533-5 0  9990
2 53670  97.6031 238.2797 0002770  85.5887 274.5656 15.05644069182167
STARLINK-4440           
1 53671U 22105Z   25359.62589816  .00002105  00000+0  16835-3 0  9994
2 53671  97.6033 237.7041 0001522  57.4266 302.7105 15.01261929182124
STARLINK-4428           
1 53672U 22105AA  25359.67936047  .00000256  00000+0  24457-4 0  9997
2 53672  97.6039 237.7857 0004004  60.0707 300.0915 15.01260702182133
STARLINK-4456           
1 53673U 22105AB  25359.55178041 -.00000785  00000+0 -50185-4 0  9993
2 53673  97.6022 238.1574 0002173  88.3292 271.8184 15.05652482182142
STARLINK-4620           
1 53674U 22105AC  25359.62013350 -.00000039  00000+0  14839-5 0  9991
2 53674  97.6062 237.7024 0001867  78.0340 282.1094 15.01250355182123
