[{"OBJECT_NAME":"STARLINK-4469","OBJECT_ID":"2022-105K","EPOCH":"2025-12-25T19:03:14.059008","MEAN_MOTION":15.79058741,"ECCENTRICITY":0.0001554,"INCLINATION":97.643,"RA_OF_ASC_NODE":252.59,"ARG_OF_PERICENTER":110.0942,"MEAN_ANOMALY":250.0491,"EPHEMERIS_TYPE":0,"CLASSIFICATION_TYPE":"U","NORAD_CAT_ID":53657,"ELEMENT_SET_NO":999,"REV_AT_EPOCH":18303,"BSTAR":6.9644e-6,"MEAN_MOTION_DOT":1.082e-5,"MEAN_MOTION_DDOT":0},{"OBJECT_NAME":"STARLINK-4452","OBJECT_ID":"2022-105L","EPOCH":"2025-12-25T14:18:22.397184","MEAN_MOTION":15.05644507,"ECCENTRICITY":0.0002416,"INCLINATION":97.6023,"RA_OF_ASC_NODE":238.2381,"ARG_OF_PERICENTER":88.2976,"MEAN_ANOMALY":271.8528,"EPHEMERIS_TYPE":0,"CLASSIFICATION_TYPE":"U","NORAD_CAT_ID":53658,"ELEMENT_SET_NO":999,"REV_AT_EPOCH":18215,"BSTAR":3.0881e-6,"MEAN_MOTION_DOT":-1.6e-7,"MEAN_MOTION_DDOT":0},{"OBJECT_NAME":"STARLINK-4463","OBJECT_ID":"2022-105M","EPOCH":"2025-12-25T20:00:01.999008","MEAN_MOTION":15.36359078,"ECCENTRICITY":0.0001572,"INCLINATION":97.6039,"RA_OF_ASC_NODE":239.1151,"ARG_OF_PERICENTER":79.9121,"MEAN_ANOMALY":169.4488,"EPHEMERIS_TYPE":0,"CLASSIFICATION_TYPE":"U","NORAD_CAT_ID":53659,"ELEMENT_SET_NO":999,"REV_AT_EPOCH":579,"BSTAR":0.028598,"MEAN_MOTION_DOT":0.01108548,"MEAN_MOTION_DDOT":0},{"OBJECT_NAME":"STARLINK-4473","OBJECT_ID":"2022-105N","EPOCH":"2025-12-25T15:19:36.893280","MEAN_MOTION":15.01262246,"ECCENTRICITY":3.12e-5,"INCLINATION":97.6028,"RA_OF_ASC_NODE":237.7081,"ARG_OF_PERICENTER":91.0379,"MEAN_ANOMALY":269.0881,"EPHEMERIS_TYPE":0,"CLASSIFICATION_TYPE":"U","NORAD_CAT_ID":53660,"ELEMENT_SET_NO":999,"REV_AT_EPOCH":18212,"BSTAR":4.2044e-6,"MEAN_MOTION_DOT":-4.0e-8,"MEAN_MOTION_DDOT":0},{"OBJECT_NAME":"STARLINK-4472","OBJECT_ID":"2022-105P","EPOCH":"2025-12-25T15:22:38.845632","MEAN_MOTION":15.01252045,"ECCENTRICITY":0.0001392,"INCLINATION":97.603,"RA_OF_ASC_NODE":237.7137,"ARG_OF_PERICENTER":70.7301,"MEAN_ANOMALY":289.4073,"EPHEMERIS_TYPE":0,"CLASSIFICATION_TYPE":"U","NORAD_CAT_ID":53661,"ELEMENT_SET_NO":999,"REV_AT_EPOCH":18212,"BSTAR":4.1189e-5,"MEAN_MOTION_DOT":4.71e-6,"MEAN_MOTION_DDOT":0},{"OBJECT_NAME":"STARLINK-4357","OBJECT_ID":"2022-105Q","EPOCH":"2025-12-25T13:38:28.737888","MEAN_MOTION":15.05651028,"ECCENTRICITY":0.0002132,"INCLINATION":97.6023,"RA_OF_ASC_NODE":238.0938,"ARG_OF_PERICENTER":78.7872,"MEAN_ANOMALY":281.3594,"EPHEMERIS_TYPE":0,"CLASSIFICATION_TYPE":"U","NORAD_CAT_ID":53662,"ELEMENT_SET_NO":999,"REV_AT_EPOCH":18214,"BSTAR":3.0618e-5,"MEAN_MOTION_DOT":3.81e-6,"MEAN_MOTION_DDOT":0},{"OBJECT_NAME":"STARLINK-4457","OBJECT_ID":"2022-105R","EPOCH":"2025-12-25T15:50:04.807968","MEAN_MOTION":15.05647743,"ECCENTRICITY":0.000241,"INCLINATION":97.6015,"RA_OF_ASC_NODE":238.2996,"ARG_OF_PERICENTER":83.5009,"MEAN_ANOMALY":276.6492,"EPHEMERIS_TYPE":0,"CLASSIFICATION_TYPE":"U","NORAD_CAT_ID":53663,"ELEMENT_SET_NO":999,"REV_AT_EPOCH":18216,"BSTAR":3.7408e-5,"MEAN_MOTION_DOT":4.79e-6,"MEAN_MOTION_DDOT":0},{"OBJECT_NAME":"STARLINK-4471","OBJECT_ID":"2022-105S","EPOCH":"2025-12-25T14:58:14.102112","MEAN_MOTION":15.05648911,"ECCENTRICITY":0.0002361,"INCLINATION":97.6029,"RA_OF_ASC_NODE":238.1765,"ARG_OF_PERICENTER":74.7611,"MEAN_ANOMALY":285.3877,"EPHEMERIS_TYPE":0,"CLASSIFICATION_TYPE":"U","NORAD_CAT_ID":53664,"ELEMENT_SET_NO":999,"REV_AT_EPOCH":18215,"BSTAR":3.5235e-5,"MEAN_MOTION_DOT":4.48e-6,"MEAN_MOTION_DDOT":0},{"OBJECT_NAME":"STARLINK-4334","OBJECT_ID":"2022-105T","EPOCH":"2025-12-25T15:46:05.685600","MEAN_MOTION":15.05646622,"ECCENTRICITY":0.0002584,"INCLINATION":97.6029,"RA_OF_ASC_NODE":238.2951,"ARG_OF_PERICENTER":88.2466,"MEAN_ANOMALY":271.9057,"EPHEMERIS_TYPE":0,"CLASSIFICATION_TYPE":"U","NORAD_CAT_ID":53665,"ELEMENT_SET_NO":999,"REV_AT_EPOCH":18216,"BSTAR":-5.2008e-6,"MEAN_MOTION_DOT":-1.36e-6,"MEAN_MOTION_DDOT":0},{"OBJECT_NAME":"STARLINK-4406","OBJECT_ID":"2022-105V","EPOCH":"2025-12-25T15:22:10.128864","MEAN_MOTION":15.0564625,"ECCENTRICITY":0.0002016,"INCLINATION":97.602,"RA_OF_ASC_NODE":238.3153,"ARG_OF_PERICENTER":83.3529,"MEAN_ANOMALY":276.7927,"EPHEMERIS_TYPE":0,"CLASSIFICATION_TYPE":"U","NORAD_CAT_ID":53667,"ELEMENT_SET_NO":999,"REV_AT_EPOCH":18216,"BSTAR":-0.00010114,"MEAN_MOTION_DOT":-1.52e-5,"MEAN_MOTION_DDOT":0},{"OBJECT_NAME":"STARLINK-4458","OBJECT_ID":"2022-105W","EPOCH":"2025-12-25T16:17:59.258112","MEAN_MOTION":15.05644888,"ECCENTRICITY":0.0002037,"INCLINATION":97.6026,"RA_OF_ASC_NODE":238.221,"ARG_OF_PERICENTER":90.5375,"MEAN_ANOMALY":269.6086,"EPHEMERIS_TYPE":0,"CLASSIFICATION_TYPE":"U","NORAD_CAT_ID":53668,"ELEMENT_SET_NO":999,"REV_AT_EPOCH":18216,"BSTAR":1.6493e-6,"MEAN_MOTION_DOT":-3.7e-7,"MEAN_MOTION_DDOT":0},{"OBJECT_NAME":"STARLINK-4464","OBJECT_ID":"2022-105X","EPOCH":"2025-12-25T13:38:18.476160","MEAN_MOTION":15.01256219,"ECCENTRICITY":5.7e-5,"INCLINATION":97.603,"RA_OF_ASC_NODE":237.6308,"ARG_OF_PERICENTER":134.9431,"MEAN_ANOMALY":225.184,"EPHEMERIS_TYPE":0,"CLASSIFICATION_TYPE":"U","NORAD_CAT_ID":53669,"ELEMENT_SET_NO":999,"REV_AT_EPOCH":18211,"BSTAR":4.532e-5,"MEAN_MOTION_DOT":5.24e-6,"MEAN_MOTION_DDOT":0},{"OBJECT_NAME":"STARLINK-4459","OBJECT_ID":"2022-105Y","EPOCH":"2025-12-25T15:34:08.149152","MEAN_MOTION":15.05644069,"ECCENTRICITY":0.000277,"INCLINATION":97.6031,"RA_OF_ASC_NODE":238.2797,"ARG_OF_PERICENTER":85.5887,"MEAN_ANOMALY":274.5656,"EPHEMERIS_TYPE":0,"CLASSIFICATION_TYPE":"U","NORAD_CAT_ID":53670,"ELEMENT_SET_NO":999,"REV_AT_EPOCH":18216,"BSTAR":2.7533e-6,"MEAN_MOTION_DOT":-2.1e-7,"MEAN_MOTION_DDOT":0},{"OBJECT_NAME":"STARLINK-4440","OBJECT_ID":"2022-105Z","EPOCH":"2025-12-25T15:01:17.601024","MEAN_MOTION":15.01261929,"ECCENTRICITY":0.0001522,"INCLINATION":97.6033,"RA_OF_ASC_NODE":237.7041,"ARG_OF_PERICENTER":57.4266,"MEAN_ANOMALY":302.7105,"EPHEMERIS_TYPE":0,"CLASSIFICATION_TYPE":"U","NORAD_CAT_ID":53671,"ELEMENT_SET_NO":999,"REV_AT_EPOCH":18212,"BSTAR":0.00016835,"MEAN_MOTION_DOT":2.105e-5,"MEAN_MOTION_DDOT":0},{"OBJECT_NAME":"STARLINK-4428","OBJECT_ID":"2022-105AA","EPOCH":"2025-12-25T16:18:16.744608","MEAN_MOTION":15.01260702,"ECCENTRICITY":0.0004004,"INCLINATION":97.6039,"RA_OF_ASC_NODE":237.7857,"ARG_OF_PERICENTER":60.0707,"MEAN_ANOMALY":300.0915,"EPHEMERIS_TYPE":0,"CLASSIFICATION_TYPE":"U","NORAD_CAT_ID":53672,"ELEMENT_SET_NO":999,"REV_AT_EPOCH":18213,"BSTAR":2.4457e-5,"MEAN_MOTION_DOT":2.56e-6,"MEAN_MOTION_DDOT":0},{"OBJECT_NAME":"STARLINK-4456","OBJECT_ID":"2022-105AB","EPOCH":"2025-12-25T13:14:33.827424","MEAN_MOTION":15.05652482,"ECCENTRICITY":0.0002173,"INCLINATION":97.6022,"RA_OF_ASC_NODE":238.1574,"ARG_OF_PERICENTER":88.3292,"MEAN_ANOMALY":271.8184,"EPHEMERIS_TYPE":0,"CLASSIFICATION_TYPE":"U","NORAD_CAT_ID":53673,"ELEMENT_SET_NO":999,"REV_AT_EPOCH":18214,"BSTAR":-5.0185e-5,"MEAN_MOTION_DOT":-7.85e-6,"MEAN_MOTION_DDOT":0},{"OBJECT_NAME":"STARLINK-4620","OBJECT_ID":"2022-105AC","EPOCH":"2025-12-25T14:52:59.534400","MEAN_MOTION":15.01250355,"ECCENTRICITY":0.0001867,"INCLINATION":97.6062,"RA_OF_ASC_NODE":237.7024,"ARG_OF_PERICENTER":78.034,"MEAN_ANOMALY":282.1094,"EPHEMERIS_TYPE":0,"CLASSIFICATION_TYPE":"U","NORAD_CAT_ID":53674,"ELEMENT_SET_NO":999,"REV_AT_EPOCH":18212,"BSTAR":1.4839e-6,"MEAN_MOTION_DOT":-3.9e-7,"MEAN_MOTION_DDOT":0}]
